SHIJIAN-16 (SJ-16)      
1 39358U 13057A   25329.23464638  .00002467  00000+0  24605-3 0  9999
2 39358  74.9742  22.7746 0016972   1.5170 358.6066 14.91913217655929
SL-4 R/B                
1 39679U 14021B   25328.85795573  .00017808  00000+0  42787-3 0  9995
2 39679  51.6056 127.4550 0103151  81.9367 279.3304 15.36020254640149
ALOS-2                  
1 39766U 14029A   25329.29376758 -.00000679  00000+0 -84114-4 0  9990
2 39766  97.9236  64.3877 0001362  99.9825 260.1540 14.79473625621430
YAOGAN-29               
1 41038U 15069A   25329.20786671  .00000576  00000+0  77810-4 0  9999
2 41038  98.0236 352.3219 0001366  25.8242 334.3039 14.82854002540390
ASTRO-H (HITOMI)        
1 41337U 16012A   25329.03211500  .00003873  00000+0  23188-3 0  9996
2 41337  31.0009 311.5141 0009641 358.5476   1.5132 15.09189949536402
HXMT (HUIYAN)           
1 42758U 17034A   25329.20058927  .00008041  00000+0  41682-3 0  9991
2 42758  43.0135 236.9425 0033870 293.3934  66.3353 15.16014732466674
CZ-2C R/B               
1 43521U 18054D   25329.01615501  .00097105  00000+0  75905-3 0  9993
2 43521  35.1362 300.7107 0021171 323.1703  36.7574 15.70041220412265
SAOCOM 1A               
1 43641U 18076A   25329.18666826  .00000612  00000+0  83494-4 0  9994
2 43641  97.8859 153.8639 0001573  89.4426 270.6967 14.82148676385886
H-2A R/B                
1 43682U 18084L   25329.11387102  .00022168  00000+0  61574-3 0  9992
2 43682  98.8787 159.5526 0028725  26.5409 333.7294 15.36501989389698
SAOCOM 1B               
1 46265U 20059A   25329.15041889  .00000626  00000+0  85151-4 0  9993
2 46265  97.8863 152.9297 0001348  90.2739 269.8629 14.82157433283268
CSS (TIANHE)            
1 48274U 21035A   25328.58140128  .00021413  00000+0  27858-3 0  9998
2 48274  41.4653 126.8581 0010743 261.2431  98.7190 15.58193834261195
COSMOS 2550             
1 48865U 21056A   25329.38083833  .00000036  00000+0  69225-5 0  9999
2 48865  67.1436 356.4418 0008295 270.9944  89.0260 15.33824919247463
