CCSDS_OMM_VERS = 2.0
CREATION_DATE  = 
ORIGINATOR     = 

OBJECT_NAME    = SHIJIAN-16 (SJ-16)
OBJECT_ID      = 2013-057A
CENTER_NAME    = EARTH
REF_FRAME      = TEME
TIME_SYSTEM    = UTC
MEAN_ELEMENT_THEORY = SGP/SGP4

EPOCH          = 2025-11-25T05:37:53.447232
MEAN_MOTION    = 14.91913217
ECCENTRICITY   = .0016972
INCLINATION    = 74.9742
RA_OF_ASC_NODE = 22.7746
ARG_OF_PERICENTER = 1.5170
MEAN_ANOMALY   = 358.6066

EPHEMERIS_TYPE = 0
CLASSIFICATION_TYPE = U
NORAD_CAT_ID   = 39358
ELEMENT_SET_NO = 999
REV_AT_EPOCH   = 65592
BSTAR          = .24605E-3
MEAN_MOTION_DOT = .2467E-4
MEAN_MOTION_DDOT = 0

CCSDS_OMM_VERS = 2.0
CREATION_DATE  = 
ORIGINATOR     = 

OBJECT_NAME    = SL-4 R/B
OBJECT_ID      = 2014-021B
CENTER_NAME    = EARTH
REF_FRAME      = TEME
TIME_SYSTEM    = UTC
MEAN_ELEMENT_THEORY = SGP/SGP4

EPOCH          = 2025-11-24T20:35:27.375072
MEAN_MOTION    = 15.36020254
ECCENTRICITY   = .0103151
INCLINATION    = 51.6056
RA_OF_ASC_NODE = 127.4550
ARG_OF_PERICENTER = 81.9367
MEAN_ANOMALY   = 279.3304

EPHEMERIS_TYPE = 0
CLASSIFICATION_TYPE = U
NORAD_CAT_ID   = 39679
ELEMENT_SET_NO = 999
REV_AT_EPOCH   = 64014
BSTAR          = .42787E-3
MEAN_MOTION_DOT = .17808E-3
MEAN_MOTION_DDOT = 0

CCSDS_OMM_VERS = 2.0
CREATION_DATE  = 
ORIGINATOR     = 

OBJECT_NAME    = ALOS-2
OBJECT_ID      = 2014-029A
CENTER_NAME    = EARTH
REF_FRAME      = TEME
TIME_SYSTEM    = UTC
MEAN_ELEMENT_THEORY = SGP/SGP4

EPOCH          = 2025-11-25T07:03:01.518912
MEAN_MOTION    = 14.79473625
ECCENTRICITY   = .0001362
INCLINATION    = 97.9236
RA_OF_ASC_NODE = 64.3877
ARG_OF_PERICENTER = 99.9825
MEAN_ANOMALY   = 260.1540

EPHEMERIS_TYPE = 0
CLASSIFICATION_TYPE = U
NORAD_CAT_ID   = 39766
ELEMENT_SET_NO = 999
REV_AT_EPOCH   = 62143
BSTAR          = -.84114E-4
MEAN_MOTION_DOT = -.679E-5
MEAN_MOTION_DDOT = 0

CCSDS_OMM_VERS = 2.0
CREATION_DATE  = 
ORIGINATOR     = 

OBJECT_NAME    = YAOGAN-29
OBJECT_ID      = 2015-069A
CENTER_NAME    = EARTH
REF_FRAME      = TEME
TIME_SYSTEM    = UTC
MEAN_ELEMENT_THEORY = SGP/SGP4

EPOCH          = 2025-11-25T04:59:19.683744
MEAN_MOTION    = 14.82854002
ECCENTRICITY   = .0001366
INCLINATION    = 98.0236
RA_OF_ASC_NODE = 352.3219
ARG_OF_PERICENTER = 25.8242
MEAN_ANOMALY   = 334.3039

EPHEMERIS_TYPE = 0
CLASSIFICATION_TYPE = U
NORAD_CAT_ID   = 41038
ELEMENT_SET_NO = 999
REV_AT_EPOCH   = 54039
BSTAR          = .7781E-4
MEAN_MOTION_DOT = .576E-5
MEAN_MOTION_DDOT = 0

CCSDS_OMM_VERS = 2.0
CREATION_DATE  = 
ORIGINATOR     = 

OBJECT_NAME    = ASTRO-H (HITOMI)
OBJECT_ID      = 2016-012A
CENTER_NAME    = EARTH
REF_FRAME      = TEME
TIME_SYSTEM    = UTC
MEAN_ELEMENT_THEORY = SGP/SGP4

EPOCH          = 2025-11-25T00:46:14.736000
MEAN_MOTION    = 15.09189949
ECCENTRICITY   = .0009641
INCLINATION    = 31.0009
RA_OF_ASC_NODE = 311.5141
ARG_OF_PERICENTER = 358.5476
MEAN_ANOMALY   = 1.5132

EPHEMERIS_TYPE = 0
CLASSIFICATION_TYPE = U
NORAD_CAT_ID   = 41337
ELEMENT_SET_NO = 999
REV_AT_EPOCH   = 53640
BSTAR          = .23188E-3
MEAN_MOTION_DOT = .3873E-4
MEAN_MOTION_DDOT = 0

CCSDS_OMM_VERS = 2.0
CREATION_DATE  = 
ORIGINATOR     = 

OBJECT_NAME    = HXMT (HUIYAN)
OBJECT_ID      = 2017-034A
CENTER_NAME    = EARTH
REF_FRAME      = TEME
TIME_SYSTEM    = UTC
MEAN_ELEMENT_THEORY = SGP/SGP4

EPOCH          = 2025-11-25T04:48:50.912928
MEAN_MOTION    = 15.16014732
ECCENTRICITY   = .003387
INCLINATION    = 43.0135
RA_OF_ASC_NODE = 236.9425
ARG_OF_PERICENTER = 293.3934
MEAN_ANOMALY   = 66.3353

EPHEMERIS_TYPE = 0
CLASSIFICATION_TYPE = U
NORAD_CAT_ID   = 42758
ELEMENT_SET_NO = 999
REV_AT_EPOCH   = 46667
BSTAR          = .41682E-3
MEAN_MOTION_DOT = .8041E-4
MEAN_MOTION_DDOT = 0

CCSDS_OMM_VERS = 2.0
CREATION_DATE  = 
ORIGINATOR     = 

OBJECT_NAME    = CZ-2C R/B
OBJECT_ID      = 2018-054D
CENTER_NAME    = EARTH
REF_FRAME      = TEME
TIME_SYSTEM    = UTC
MEAN_ELEMENT_THEORY = SGP/SGP4

EPOCH          = 2025-11-25T00:23:15.792864
MEAN_MOTION    = 15.70041220
ECCENTRICITY   = .0021171
INCLINATION    = 35.1362
RA_OF_ASC_NODE = 300.7107
ARG_OF_PERICENTER = 323.1703
MEAN_ANOMALY   = 36.7574

EPHEMERIS_TYPE = 0
CLASSIFICATION_TYPE = U
NORAD_CAT_ID   = 43521
ELEMENT_SET_NO = 999
REV_AT_EPOCH   = 41226
BSTAR          = .75905E-3
MEAN_MOTION_DOT = .97105E-3
MEAN_MOTION_DDOT = 0

CCSDS_OMM_VERS = 2.0
CREATION_DATE  = 
ORIGINATOR     = 

OBJECT_NAME    = SAOCOM 1A
OBJECT_ID      = 2018-076A
CENTER_NAME    = EARTH
REF_FRAME      = TEME
TIME_SYSTEM    = UTC
MEAN_ELEMENT_THEORY = SGP/SGP4

EPOCH          = 2025-11-25T04:28:48.137664
MEAN_MOTION    = 14.82148676
ECCENTRICITY   = .0001573
INCLINATION    = 97.8859
RA_OF_ASC_NODE = 153.8639
ARG_OF_PERICENTER = 89.4426
MEAN_ANOMALY   = 270.6967

EPHEMERIS_TYPE = 0
CLASSIFICATION_TYPE = U
NORAD_CAT_ID   = 43641
ELEMENT_SET_NO = 999
REV_AT_EPOCH   = 38588
BSTAR          = .83494E-4
MEAN_MOTION_DOT = .612E-5
MEAN_MOTION_DDOT = 0

CCSDS_OMM_VERS = 2.0
CREATION_DATE  = 
ORIGINATOR     = 

OBJECT_NAME    = H-2A R/B
OBJECT_ID      = 2018-084L
CENTER_NAME    = EARTH
REF_FRAME      = TEME
TIME_SYSTEM    = UTC
MEAN_ELEMENT_THEORY = SGP/SGP4

EPOCH          = 2025-11-25T02:43:58.456128
MEAN_MOTION    = 15.36501989
ECCENTRICITY   = .0028725
INCLINATION    = 98.8787
RA_OF_ASC_NODE = 159.5526
ARG_OF_PERICENTER = 26.5409
MEAN_ANOMALY   = 333.7294

EPHEMERIS_TYPE = 0
CLASSIFICATION_TYPE = U
NORAD_CAT_ID   = 43682
ELEMENT_SET_NO = 999
REV_AT_EPOCH   = 38969
BSTAR          = .61574E-3
MEAN_MOTION_DOT = .22168E-3
MEAN_MOTION_DDOT = 0

CCSDS_OMM_VERS = 2.0
CREATION_DATE  = 
ORIGINATOR     = 

OBJECT_NAME    = SAOCOM 1B
OBJECT_ID      = 2020-059A
CENTER_NAME    = EARTH
REF_FRAME      = TEME
TIME_SYSTEM    = UTC
MEAN_ELEMENT_THEORY = SGP/SGP4

EPOCH          = 2025-11-25T03:36:36.192096
MEAN_MOTION    = 14.82157433
ECCENTRICITY   = .0001348
INCLINATION    = 97.8863
RA_OF_ASC_NODE = 152.9297
ARG_OF_PERICENTER = 90.2739
MEAN_ANOMALY   = 269.8629

EPHEMERIS_TYPE = 0
CLASSIFICATION_TYPE = U
NORAD_CAT_ID   = 46265
ELEMENT_SET_NO = 999
REV_AT_EPOCH   = 28326
BSTAR          = .85151E-4
MEAN_MOTION_DOT = .626E-5
MEAN_MOTION_DDOT = 0

CCSDS_OMM_VERS = 2.0
CREATION_DATE  = 
ORIGINATOR     = 

OBJECT_NAME    = CSS (TIANHE)
OBJECT_ID      = 2021-035A
CENTER_NAME    = EARTH
REF_FRAME      = TEME
TIME_SYSTEM    = UTC
MEAN_ELEMENT_THEORY = SGP/SGP4

EPOCH          = 2025-11-24T13:57:13.070592
MEAN_MOTION    = 15.58193834
ECCENTRICITY   = .00107432
INCLINATION    = 41.4653
RA_OF_ASC_NODE = 126.8581
ARG_OF_PERICENTER = 261.2431
MEAN_ANOMALY   = 98.7190

EPHEMERIS_TYPE = 0
CLASSIFICATION_TYPE = U
NORAD_CAT_ID   = 48274
ELEMENT_SET_NO = 999
REV_AT_EPOCH   = 26119
BSTAR          = .27858096E-3
MEAN_MOTION_DOT = .21413E-3
MEAN_MOTION_DDOT = 0

CCSDS_OMM_VERS = 2.0
CREATION_DATE  = 
ORIGINATOR     = 

OBJECT_NAME    = COSMOS 2550
OBJECT_ID      = 2021-056A
CENTER_NAME    = EARTH
REF_FRAME      = TEME
TIME_SYSTEM    = UTC
MEAN_ELEMENT_THEORY = SGP/SGP4

EPOCH          = 2025-11-25T09:08:24.431712
MEAN_MOTION    = 15.33824919
ECCENTRICITY   = .0008295
INCLINATION    = 67.1436
RA_OF_ASC_NODE = 356.4418
ARG_OF_PERICENTER = 270.9944
MEAN_ANOMALY   = 89.0260

EPHEMERIS_TYPE = 0
CLASSIFICATION_TYPE = U
NORAD_CAT_ID   = 48865
ELEMENT_SET_NO = 999
REV_AT_EPOCH   = 24746
BSTAR          = .69225E-5
MEAN_MOTION_DOT = .36E-6
MEAN_MOTION_DDOT = 0

